{"fetched_at":"2026-04-02T05:43:41Z","count":6320,"tles":[{"name":"FENGYUN 3H","line1":"1 65815U 25219A   26091.51504462  .00000107  00000+0  70841-4 0  9990","line2":"2 65815  98.6715  33.7979 0000776  64.0443 296.0813 14.19938592 26505","category":"Weather"},{"name":"GOES 19","line1":"1 60133U 24119A   26091.45171443  .00000000  00000+0  00000+0 0  9995","line2":"2 60133   0.0166  89.7328 0000968 327.7445 219.7613  1.00269932  6197","category":"Weather"}]}