[{"OBJECT_NAME":"GOES 19","OBJECT_ID":"2024-119A","EPOCH":"2026-04-01T10:50:28.126752","MEAN_MOTION":1.00269932,"ECCENTRICITY":9.68e-5,"INCLINATION":0.0166,"RA_OF_ASC_NODE":89.7328,"ARG_OF_PERICENTER":327.7445,"MEAN_ANOMALY":219.7613,"EPHEMERIS_TYPE":0,"CLASSIFICATION_TYPE":"U","NORAD_CAT_ID":60133,"ELEMENT_SET_NO":999,"REV_AT_EPOCH":619,"BSTAR":0,"MEAN_MOTION_DOT":0,"MEAN_MOTION_DDOT":0},{"OBJECT_NAME":"FENGYUN 3H","OBJECT_ID":"2025-219A","EPOCH":"2026-04-01T12:21:39.855168","MEAN_MOTION":14.19938592,"ECCENTRICITY":7.76e-5,"INCLINATION":98.6715,"RA_OF_ASC_NODE":33.7979,"ARG_OF_PERICENTER":64.0443,"MEAN_ANOMALY":296.0813,"EPHEMERIS_TYPE":0,"CLASSIFICATION_TYPE":"U","NORAD_CAT_ID":65815,"ELEMENT_SET_NO":999,"REV_AT_EPOCH":2650,"BSTAR":7.0841e-5,"MEAN_MOTION_DOT":1.07e-6,"MEAN_MOTION_DDOT":0}]
